start=new Date('2022-01-23T00:00:00.000Z').valueOf();
sats=[{"OBJECT_NAME":"STARLINK-3329","PERIOD":"91.419","FILE":"3280297","SITE":"AFETR","ELEMENT_SET_NO":"999","EPHEMERIS_TYPE":"0","COUNTRY_CODE":"US","MEAN_MOTION":"15.75167050","MEAN_MOTION_DOT":"-0.00820926","RA_OF_ASC_NODE":"119.7732","CLASSIFICATION_TYPE":"U","APOAPSIS":"344.849","OBJECT_ID":"2022-001AA","CENTER_NAME":"EARTH","REV_AT_EPOCH":"382","BSTAR":"-0.00591170000000","MEAN_MOTION_DDOT":"0.0000000000000","DECAY_DATE":null,"TLE_LINE1":"1 50827U 22001AA  22022.91667824 -.00820926  00000-0 -59117-2 0  9992","MEAN_ELEMENT_THEORY":"SGP4","PERIAPSIS":"343.467","ARG_OF_PERICENTER":"83.9580","SEMIMAJOR_AXIS":"6722.293","TIME_SYSTEM":"UTC","GP_ID":"194403649","ECCENTRICITY":"0.00010280","RCS_SIZE":"LARGE","NORAD_CAT_ID":"50827","REF_FRAME":"TEME","TLE_LINE2":"2 50827  53.2175 119.7732 0001028  83.9580 224.9683 15.75167050  3825","INCLINATION":"53.2175","EPOCH":"2022-01-22T22:00:00.999936","OBJECT_TYPE":"PAYLOAD","MEAN_ANOMALY":"224.9683","LAUNCH_DATE":"2022-01-06"},{"OBJECT_NAME":"STARLINK-3290","PERIOD":"91.412","SITE":"AFETR","ELEMENT_SET_NO":"999","FILE":"3280297","EPHEMERIS_TYPE":"0","COUNTRY_CODE":"US","MEAN_MOTION":"15.75286799","RA_OF_ASC_NODE":"119.7596","MEAN_MOTION_DOT":"-0.00820908","CENTER_NAME":"EARTH","CLASSIFICATION_TYPE":"U","APOAPSIS":"344.501","OBJECT_ID":"2022-001AB","REV_AT_EPOCH":"383","TLE_LINE1":"1 50828U 22001AB  22022.91667824 -.00820908  00000-0 -58805-2 0  9996","BSTAR":"-0.00588050000000","MEAN_MOTION_DDOT":"0.0000000000000","DECAY_DATE":null,"MEAN_ELEMENT_THEORY":"SGP4","PERIAPSIS":"343.133","ARG_OF_PERICENTER":"88.5404","SEMIMAJOR_AXIS":"6721.952","GP_ID":"194403481","TIME_SYSTEM":"UTC","ECCENTRICITY":"0.00010180","REF_FRAME":"TEME","NORAD_CAT_ID":"50828","TLE_LINE2":"2 50828  53.2175 119.7596 0001018  88.5404 226.9167 15.75286799  3831","RCS_SIZE":"LARGE","LAUNCH_DATE":"2022-01-06","INCLINATION":"53.2175","EPOCH":"2022-01-22T22:00:00.999936","OBJECT_TYPE":"PAYLOAD","MEAN_ANOMALY":"226.9167"},{"REF_FRAME":"TEME","NORAD_CAT_ID":"50829","TLE_LINE2":"2 50829  53.2175 119.7757 0001127  60.9376 246.7986 15.75145439  3827","RCS_SIZE":"LARGE","LAUNCH_DATE":"2022-01-06","INCLINATION":"53.2175","EPOCH":"2022-01-22T22:00:00.999936","MEAN_ANOMALY":"246.7986","OBJECT_TYPE":"PAYLOAD","ECCENTRICITY":"0.00011270","ARG_OF_PERICENTER":"60.9376","SEMIMAJOR_AXIS":"6722.354","GP_ID":"194403491","TIME_SYSTEM":"UTC","TLE_LINE1":"1 50829U 22001AC  22022.91667824 -.00821430  00000-0 -59211-2 0  9990","BSTAR":"-0.00592110000000","DECAY_DATE":null,"MEAN_MOTION_DDOT":"0.0000000000000","PERIAPSIS":"343.462","MEAN_ELEMENT_THEORY":"SGP4","CENTER_NAME":"EARTH","CLASSIFICATION_TYPE":"U","APOAPSIS":"344.977","OBJECT_ID":"2022-001AC","REV_AT_EPOCH":"382","COUNTRY_CODE":"US","MEAN_MOTION":"15.75145439","RA_OF_ASC_NODE":"119.7757","MEAN_MOTION_DOT":"-0.00821430","SITE":"AFETR","ELEMENT_SET_NO":"999","FILE":"3280297","EPHEMERIS_TYPE":"0","OBJECT_NAME":"STARLINK-3294","PERIOD":"91.420"},{"TLE_LINE1":"1 50831U 22001AE  22022.91667824 -.00821393  00000-0 -58869-2 0  9999","MEAN_MOTION_DDOT":"0.0000000000000","DECAY_DATE":null,"BSTAR":"-0.00588690000000","MEAN_ELEMENT_THEORY":"SGP4","PERIAPSIS":"343.088","SEMIMAJOR_AXIS":"6721.983","ARG_OF_PERICENTER":"60.3778","GP_ID":"194403658","TIME_SYSTEM":"UTC","ECCENTRICITY":"0.00011310","TLE_LINE2":"2 50831  53.2175 119.7610 0001131  60.3778 254.4878 15.75275889  3822","NORAD_CAT_ID":"50831","REF_FRAME":"TEME","RCS_SIZE":"LARGE","LAUNCH_DATE":"2022-01-06","OBJECT_TYPE":"PAYLOAD","MEAN_ANOMALY":"254.4878","INCLINATION":"53.2175","EPOCH":"2022-01-22T22:00:00.999936","OBJECT_NAME":"STARLINK-3299","PERIOD":"91.413","ELEMENT_SET_NO":"999","SITE":"AFETR","FILE":"3280306","EPHEMERIS_TYPE":"0","MEAN_MOTION":"15.75275889","COUNTRY_CODE":"US","RA_OF_ASC_NODE":"119.7610","MEAN_MOTION_DOT":"-0.00821393","CENTER_NAME":"EARTH","APOAPSIS":"344.608","OBJECT_ID":"2022-001AE","CLASSIFICATION_TYPE":"U","REV_AT_EPOCH":"382"},{"PERIAPSIS":"343.007","MEAN_ELEMENT_THEORY":"SGP4","MEAN_MOTION_DDOT":"0.0000000000000","DECAY_DATE":null,"BSTAR":"-0.00587750000000","TLE_LINE1":"1 50832U 22001AF  22022.91667824 -.00821244  00000-0 -58775-2 0  9991","TIME_SYSTEM":"UTC","GP_ID":"194403494","SEMIMAJOR_AXIS":"6721.892","ARG_OF_PERICENTER":"59.0013","ECCENTRICITY":"0.00011160","OBJECT_TYPE":"PAYLOAD","MEAN_ANOMALY":"257.6442","INCLINATION":"53.2175","EPOCH":"2022-01-22T22:00:00.999936","LAUNCH_DATE":"2022-01-06","RCS_SIZE":"LARGE","TLE_LINE2":"2 50832  53.2175 119.7572 0001116  59.0013 257.6442 15.75307782  3808","NORAD_CAT_ID":"50832","REF_FRAME":"TEME","PERIOD":"91.411","OBJECT_NAME":"STARLINK-3328","EPHEMERIS_TYPE":"0","FILE":"3280306","ELEMENT_SET_NO":"999","SITE":"AFETR","MEAN_MOTION_DOT":"-0.00821244","RA_OF_ASC_NODE":"119.7572","MEAN_MOTION":"15.75307782","COUNTRY_CODE":"US","REV_AT_EPOCH":"380","APOAPSIS":"344.508","OBJECT_ID":"2022-001AF","CLASSIFICATION_TYPE":"U","CENTER_NAME":"EARTH"},{"OBJECT_NAME":"STARLINK-3316","PERIOD":"91.414","SITE":"AFETR","ELEMENT_SET_NO":"999","FILE":"3280298","EPHEMERIS_TYPE":"0","COUNTRY_CODE":"US","MEAN_MOTION":"15.75254188","RA_OF_ASC_NODE":"119.7633","MEAN_MOTION_DOT":"-0.00821052","CENTER_NAME":"EARTH","CLASSIFICATION_TYPE":"U","APOAPSIS":"344.620","OBJECT_ID":"2022-001AG","REV_AT_EPOCH":"382","TLE_LINE1":"1 50833U 22001AG  22022.91667824 -.00821052  00000-0 -58900-2 0  9999","BSTAR":"-0.00589000000000","DECAY_DATE":null,"MEAN_MOTION_DDOT":"0.0000000000000","PERIAPSIS":"343.199","MEAN_ELEMENT_THEORY":"SGP4","ARG_OF_PERICENTER":"71.0694","SEMIMAJOR_AXIS":"6722.045","GP_ID":"194403517","TIME_SYSTEM":"UTC","ECCENTRICITY":"0.00010570","REF_FRAME":"TEME","NORAD_CAT_ID":"50833","TLE_LINE2":"2 50833  53.2175 119.7633 0001057  71.0694 242.6095 15.75254188  3821","RCS_SIZE":"LARGE","LAUNCH_DATE":"2022-01-06","EPOCH":"2022-01-22T22:00:00.999936","INCLINATION":"53.2175","OBJECT_TYPE":"PAYLOAD","MEAN_ANOMALY":"242.6095"},{"MEAN_MOTION":"15.75340605","COUNTRY_CODE":"US","RA_OF_ASC_NODE":"119.7535","MEAN_MOTION_DOT":"-0.00821489","CENTER_NAME":"EARTH","APOAPSIS":"344.424","OBJECT_ID":"2022-001AH","CLASSIFICATION_TYPE":"U","REV_AT_EPOCH":"383","OBJECT_NAME":"STARLINK-3331","PERIOD":"91.409","ELEMENT_SET_NO":"999","SITE":"AFETR","FILE":"3280299","EPHEMERIS_TYPE":"0","ECCENTRICITY":"0.00011310","TLE_LINE2":"2 50834  53.2175 119.7535 0001131  56.9015 261.5184 15.75340605  3835","NORAD_CAT_ID":"50834","REF_FRAME":"TEME","RCS_SIZE":"LARGE","LAUNCH_DATE":"2022-01-06","MEAN_ANOMALY":"261.5184","OBJECT_TYPE":"PAYLOAD","INCLINATION":"53.2175","EPOCH":"2022-01-22T22:00:00.999936","TLE_LINE1":"1 50834U 22001AH  22022.91667824 -.00821489  00000-0 -58709-2 0  9991","MEAN_MOTION_DDOT":"0.0000000000000","DECAY_DATE":null,"BSTAR":"-0.00587090000000","MEAN_ELEMENT_THEORY":"SGP4","PERIAPSIS":"342.904","SEMIMAJOR_AXIS":"6721.799","ARG_OF_PERICENTER":"56.9015","GP_ID":"194403524","TIME_SYSTEM":"UTC"},{"ELEMENT_SET_NO":"999","SITE":"AFETR","FILE":"3280346","EPHEMERIS_TYPE":"0","OBJECT_NAME":"STARLINK-3310","PERIOD":"91.408","CENTER_NAME":"EARTH","APOAPSIS":"344.351","OBJECT_ID":"2022-001AJ","CLASSIFICATION_TYPE":"U","REV_AT_EPOCH":"381","MEAN_MOTION":"15.75362959","COUNTRY_CODE":"US","RA_OF_ASC_NODE":"119.7512","MEAN_MOTION_DOT":"-0.00821394","SEMIMAJOR_AXIS":"6721.736","ARG_OF_PERICENTER":"61.4621","GP_ID":"194404604","TIME_SYSTEM":"UTC","TLE_LINE1":"1 50835U 22001AJ  22022.91667824 -.00821394  00000-0 -58644-2 0  9995","DECAY_DATE":null,"MEAN_MOTION_DDOT":"0.0000000000000","BSTAR":"-0.00586440000000","PERIAPSIS":"342.850","MEAN_ELEMENT_THEORY":"SGP4","TLE_LINE2":"2 50835  53.2175 119.7512 0001117  61.4621 258.1367 15.75362959  3818","NORAD_CAT_ID":"50835","REF_FRAME":"TEME","RCS_SIZE":"LARGE","LAUNCH_DATE":"2022-01-06","MEAN_ANOMALY":"258.1367","OBJECT_TYPE":"PAYLOAD","INCLINATION":"53.2175","EPOCH":"2022-01-22T22:00:00.999936","ECCENTRICITY":"0.00011170"},{"ELEMENT_SET_NO":"999","SITE":"AFETR","FILE":"3280347","EPHEMERIS_TYPE":"0","OBJECT_NAME":"STARLINK-3330","PERIOD":"91.409","CENTER_NAME":"EARTH","APOAPSIS":"344.430","OBJECT_ID":"2022-001AK","CLASSIFICATION_TYPE":"U","REV_AT_EPOCH":"380","MEAN_MOTION":"15.75329681","COUNTRY_CODE":"US","RA_OF_ASC_NODE":"119.7547","MEAN_MOTION_DOT":"-0.00821374","SEMIMAJOR_AXIS":"6721.830","ARG_OF_PERICENTER":"63.6972","GP_ID":"194404609","TIME_SYSTEM":"UTC","TLE_LINE1":"1 50836U 22001AK  22022.91667824 -.00821374  00000-0 -58729-2 0  9998","MEAN_MOTION_DDOT":"0.0000000000000","DECAY_DATE":null,"BSTAR":"-0.00587290000000","MEAN_ELEMENT_THEORY":"SGP4","PERIAPSIS":"342.961","TLE_LINE2":"2 50836  53.2175 119.7547 0001093  63.6972 254.1312 15.75329681  3803","REF_FRAME":"TEME","NORAD_CAT_ID":"50836","RCS_SIZE":"LARGE","LAUNCH_DATE":"2022-01-06","MEAN_ANOMALY":"254.1312","OBJECT_TYPE":"PAYLOAD","INCLINATION":"53.2175","EPOCH":"2022-01-22T22:00:00.999936","ECCENTRICITY":"0.00010930"},{"BSTAR":"-0.00589150000000","MEAN_MOTION_DDOT":"0.0000000000000","DECAY_DATE":null,"TLE_LINE1":"1 50837U 22001AL  22022.91667824 -.00820863  00000-0 -58915-2 0  9998","PERIAPSIS":"343.251","MEAN_ELEMENT_THEORY":"SGP4","ARG_OF_PERICENTER":"85.8730","SEMIMAJOR_AXIS":"6722.077","TIME_SYSTEM":"UTC","GP_ID":"194404718","ECCENTRICITY":"0.00010280","RCS_SIZE":"LARGE","NORAD_CAT_ID":"50837","REF_FRAME":"TEME","TLE_LINE2":"2 50837  53.2175 119.7645 0001028  85.8730 227.2140 15.75242895  3754","INCLINATION":"53.2175","EPOCH":"2022-01-22T22:00:00.999936","OBJECT_TYPE":"PAYLOAD","MEAN_ANOMALY":"227.2140","LAUNCH_DATE":"2022-01-06","OBJECT_NAME":"STARLINK-3318","PERIOD":"91.414","FILE":"3280347","SITE":"AFETR","ELEMENT_SET_NO":"999","EPHEMERIS_TYPE":"0","COUNTRY_CODE":"US","MEAN_MOTION":"15.75242895","MEAN_MOTION_DOT":"-0.00820863","RA_OF_ASC_NODE":"119.7645","CLASSIFICATION_TYPE":"U","APOAPSIS":"344.633","OBJECT_ID":"2022-001AL","CENTER_NAME":"EARTH","REV_AT_EPOCH":"375"}];
